{
  "type": "FeatureCollection",
  "features": [
    {
      "type": "Feature",
      "properties": {
        "norad_id": 41599,
        "name": "CARTOSAT-2C",
        "group": "resource",
        "lat": -47.12824398262067,
        "lon": -131.5278907907646,
        "alt_km": 521.6461124540174,
        "timestamp": "2025-12-25T11:37:44.079035+00:00",
        "meta_object_name": "CARTOSAT-2C",
        "meta_object_id": "2016-040A",
        "meta_epoch": "2025-12-25T04:18:25.727616",
        "meta_mean_motion": 15.19227099,
        "meta_eccentricity": 0.001064,
        "meta_inclination": 97.4743,
        "meta_ra_of_asc_node": 56.3004,
        "meta_arg_of_pericenter": 23.3076,
        "meta_mean_anomaly": 336.8639,
        "meta_ephemeris_type": 0,
        "meta_classification_type": "U",
        "meta_norad_cat_id": 41599,
        "meta_element_set_no": 999,
        "meta_rev_at_epoch": 52729,
        "meta_bstar": 0.00024183,
        "meta_mean_motion_dot": 5.032e-05,
        "meta_mean_motion_ddot": 0,
        "tle_line1": "1 41599U 16040A   25359.17946444  .00005032  00000+0  24183-3 0  9992",
        "tle_line2": "2 41599  97.4743  56.3004 0010640  23.3076 336.8639 15.19227099527292"
      },
      "geometry": {
        "type": "Point",
        "coordinates": [
          -131.5278907907646,
          -47.12824398262067
        ]
      }
    },
    {
      "type": "Feature",
      "properties": {
        "norad_id": 41601,
        "name": "SKYSAT-C1",
        "group": "resource",
        "lat": -0.505613913328375,
        "lon": -144.28242294112806,
        "alt_km": 471.09285983653353,
        "timestamp": "2025-12-25T11:37:44.079045+00:00",
        "meta_object_name": "SKYSAT-C1",
        "meta_object_id": "2016-040C",
        "meta_epoch": "2025-12-25T01:26:37.321152",
        "meta_mean_motion": 15.32807797,
        "meta_eccentricity": 9.31e-05,
        "meta_inclination": 96.9806,
        "meta_ra_of_asc_node": 35.379,
        "meta_arg_of_pericenter": 322.4418,
        "meta_mean_anomaly": 37.676,
        "meta_ephemeris_type": 0,
        "meta_classification_type": "U",
        "meta_norad_cat_id": 41601,
        "meta_element_set_no": 999,
        "meta_rev_at_epoch": 53116,
        "meta_bstar": 0.00032373,
        "meta_mean_motion_dot": 0.00010188,
        "meta_mean_motion_ddot": 0,
        "tle_line1": "1 41601U 16040C   25359.06015418  .00010188  00000+0  32373-3 0  9990",
        "tle_line2": "2 41601  96.9806  35.3790 0000931 322.4418  37.6760 15.32807797531160"
      },
      "geometry": {
        "type": "Point",
        "coordinates": [
          -144.28242294112806,
          -0.505613913328375
        ]
      }
    },
    {
      "type": "Feature",
      "properties": {
        "norad_id": 41603,
        "name": "LAPAN-A3",
        "group": "resource",
        "lat": -81.86412193273338,
        "lon": 57.8936521578973,
        "alt_km": 472.35765709588213,
        "timestamp": "2025-12-25T11:37:44.079055+00:00",
        "meta_object_name": "LAPAN-A3",
        "meta_object_id": "2016-040E",
        "meta_epoch": "2025-12-25T05:43:55.749216",
        "meta_mean_motion": 15.31653186,
        "meta_eccentricity": 0.0008666,
        "meta_inclination": 97.1435,
        "meta_ra_of_asc_node": 356.3408,
        "meta_arg_of_pericenter": 281.8392,
        "meta_mean_anomaly": 78.1878,
        "meta_ephemeris_type": 0,
        "meta_classification_type": "U",
        "meta_norad_cat_id": 41603,
        "meta_element_set_no": 999,
        "meta_rev_at_epoch": 52817,
        "meta_bstar": 0.00016309,
        "meta_mean_motion_dot": 4.915e-05,
        "meta_mean_motion_ddot": 0,
        "tle_line1": "1 41603U 16040E   25359.23883969  .00004915  00000+0  16309-3 0  9997",
        "tle_line2": "2 41603  97.1435 356.3408 0008666 281.8392  78.1878 15.31653186528174"
      },
      "geometry": {
        "type": "Point",
        "coordinates": [
          57.8936521578973,
          -81.86412193273338
        ]
      }
    },
    {
      "type": "Feature",
      "properties": {
        "norad_id": 41604,
        "name": "BIROS",
        "group": "resource",
        "lat": -7.606951169098136,
        "lon": 32.42428366990629,
        "alt_km": 294.48427001845357,
        "timestamp": "2025-12-25T11:37:44.079066+00:00",
        "meta_object_name": "BIROS",
        "meta_object_id": "2016-040F",
        "meta_epoch": "2025-12-25T01:07:09.917184",
        "meta_mean_motion": 15.94683958,
        "meta_eccentricity": 0.0003905,
        "meta_inclination": 97.0657,
        "meta_ra_of_asc_node": 31.0163,
        "meta_arg_of_pericenter": 124.4663,
        "meta_mean_anomaly": 235.6982,
        "meta_ephemeris_type": 0,
        "meta_classification_type": "U",
        "meta_norad_cat_id": 41604,
        "meta_element_set_no": 999,
        "meta_rev_at_epoch": 53068,
        "meta_bstar": 0.00061517,
        "meta_mean_motion_dot": 0.00232464,
        "meta_mean_motion_ddot": 2.2718e-05,
        "tle_line1": "1 41604U 16040F   25359.04664256  .00232464  22718-4  61517-3 0  9991",
        "tle_line2": "2 41604  97.0657  31.0163 0003905 124.4663 235.6982 15.94683958530683"
      },
      "geometry": {
        "type": "Point",
        "coordinates": [
          32.42428366990629,
          -7.606951169098136
        ]
      }
    },
    {
      "type": "Feature",
      "properties": {
        "norad_id": 41727,
        "name": "GAOFEN-3",
        "group": "resource",
        "lat": -78.94239943302978,
        "lon": 54.02785637764069,
        "alt_km": 759.0952432280737,
        "timestamp": "2025-12-25T11:37:44.079076+00:00",
        "meta_object_name": "GAOFEN-3",
        "meta_object_id": "2016-049A",
        "meta_epoch": "2025-12-25T05:21:07.367616",
        "meta_mean_motion": 14.42216775,
        "meta_eccentricity": 0.0001093,
        "meta_inclination": 98.4036,
        "meta_ra_of_asc_node": 4.6185,
        "meta_arg_of_pericenter": 56.323,
        "meta_mean_anomaly": 303.8064,
        "meta_ephemeris_type": 0,
        "meta_classification_type": "U",
        "meta_norad_cat_id": 41727,
        "meta_element_set_no": 999,
        "meta_rev_at_epoch": 49357,
        "meta_bstar": 5.9258e-05,
        "meta_mean_motion_dot": 1.52e-06,
        "meta_mean_motion_ddot": 0,
        "tle_line1": "1 41727U 16049A   25359.22300194  .00000152  00000+0  59258-4 0  9996",
        "tle_line2": "2 41727  98.4036   4.6185 0001093  56.3230 303.8064 14.42216775493570"
      },
      "geometry": {
        "type": "Point",
        "coordinates": [
          54.02785637764069,
          -78.94239943302978
        ]
      }
    },
    {
      "type": "Feature",
      "properties": {
        "norad_id": 41771,
        "name": "SKYSAT-C4",
        "group": "resource",
        "lat": -21.050757843846522,
        "lon": -158.63203951516718,
        "alt_km": 443.4872256118342,
        "timestamp": "2025-12-25T11:37:44.079086+00:00",
        "meta_object_name": "SKYSAT-C4",
        "meta_object_id": "2016-058B",
        "meta_epoch": "2025-12-25T02:58:33.098016",
        "meta_mean_motion": 15.42597663,
        "meta_eccentricity": 0.0002556,
        "meta_inclination": 96.9362,
        "meta_ra_of_asc_node": 23.7104,
        "meta_arg_of_pericenter": 123.3164,
        "meta_mean_anomaly": 236.833,
        "meta_ephemeris_type": 0,
        "meta_classification_type": "U",
        "meta_norad_cat_id": 41771,
        "meta_element_set_no": 999,
        "meta_rev_at_epoch": 51858,
        "meta_bstar": 0.00036071,
        "meta_mean_motion_dot": 0.00015617,
        "meta_mean_motion_ddot": 0,
        "tle_line1": "1 41771U 16058B   25359.12399419  .00015617  00000+0  36071-3 0  9991",
        "tle_line2": "2 41771  96.9362  23.7104 0002556 123.3164 236.8330 15.42597663518582"
      },
      "geometry": {
        "type": "Point",
        "coordinates": [
          -158.63203951516718,
          -21.050757843846522
        ]
      }
    },
    {
      "type": "Feature",
      "properties": {
        "norad_id": 41772,
        "name": "SKYSAT-C5",
        "group": "resource",
        "lat": 82.07978885208534,
        "lon": -74.09676672567895,
        "alt_km": 458.110842902438,
        "timestamp": "2025-12-25T11:37:44.079096+00:00",
        "meta_object_name": "SKYSAT-C5",
        "meta_object_id": "2016-058C",
        "meta_epoch": "2025-12-25T01:49:46.551936",
        "meta_mean_motion": 15.3409486,
        "meta_eccentricity": 0.0003967,
        "meta_inclination": 97.0737,
        "meta_ra_of_asc_node": 42.3114,
        "meta_arg_of_pericenter": 231.5105,
        "meta_mean_anomaly": 128.5783,
        "meta_ephemeris_type": 0,
        "meta_classification_type": "U",
        "meta_norad_cat_id": 41772,
        "meta_element_set_no": 999,
        "meta_rev_at_epoch": 51705,
        "meta_bstar": 0.00031271,
        "meta_mean_motion_dot": 0.00010248,
        "meta_mean_motion_ddot": 0,
        "tle_line1": "1 41772U 16058C   25359.07623324  .00010248  00000+0  31271-3 0  9993",
        "tle_line2": "2 41772  97.0737  42.3114 0003967 231.5105 128.5783 15.34094860517055"
      },
      "geometry": {
        "type": "Point",
        "coordinates": [
          -74.09676672567895,
          82.07978885208534
        ]
      }
    }
  ]
}